{"type": "FeatureCollection", "features": [ {"type": "Feature", "properties": {"norad_id": 31767, "name": "FENGYUN 1C DEB", "group": "fengyun-1c-debris", "lat": 26.610424002046905, "lon": 13.660410475955862, "alt_km": 851.6604718053086, "timestamp": "2025-12-14T11:29:50.344399+00:00", "meta": {"OBJECT_NAME": "FENGYUN 1C DEB", "OBJECT_ID": "1999-025CFS", "EPOCH": "2025-12-13T01:19:33.998304", "MEAN_MOTION": 14.04953553, "ECCENTRICITY": 0.0041884, "INCLINATION": 98.8215, "RA_OF_ASC_NODE": 16.7383, "ARG_OF_PERICENTER": 69.1495, "MEAN_ANOMALY": 320.8428, "EPHEMERIS_TYPE": 0, "CLASSIFICATION_TYPE": "U", "NORAD_CAT_ID": 31767, "ELEMENT_SET_NO": 999, "REV_AT_EPOCH": 94830, "BSTAR": 0.00010481838, "MEAN_MOTION_DOT": 1.27e-06, "MEAN_MOTION_DDOT": 0}, "tle": {"line1": "1 31767U 99025CFS 25347.05525461  .00000127  00000+0  10482-3 0  9995", "line2": "2 31767  98.8215  16.7383 0041884  69.1495 320.8428 14.04953553948306"}}, "geometry": {"type": "Point", "coordinates": [13.660410475955862, 26.610424002046905]}}, {"type": "Feature", "properties": {"norad_id": 31768, "name": "FENGYUN 1C DEB", "group": "fengyun-1c-debris", "lat": -43.03882532530118, "lon": -126.99259818618498, "alt_km": 654.8261072999458, "timestamp": "2025-12-14T11:29:50.344411+00:00", "meta": {"OBJECT_NAME": "FENGYUN 1C DEB", "OBJECT_ID": "1999-025CFT", "EPOCH": "2025-12-13T03:42:39.244896", "MEAN_MOTION": 14.76178141, "ECCENTRICITY": 0.00263577, "INCLINATION": 99.0431, "RA_OF_ASC_NODE": 60.079, "ARG_OF_PERICENTER": 340.2181, "MEAN_ANOMALY": 49.2796, "EPHEMERIS_TYPE": 0, "CLASSIFICATION_TYPE": "U", "NORAD_CAT_ID": 31768, "ELEMENT_SET_NO": 999, "REV_AT_EPOCH": 96879, "BSTAR": 0.0040493583, "MEAN_MOTION_DOT": 0.00028203, "MEAN_MOTION_DDOT": 0}, "tle": {"line1": "1 31768U 99025CFT 25347.15462089  .00028203  00000+0  40494-2 0  9993", "line2": "2 31768  99.0431  60.0790 0026357 340.2181  49.2796 14.76178141968793"}}, "geometry": {"type": "Point", "coordinates": [-126.99259818618498, -43.03882532530118]}}, {"type": "Feature", "properties": {"norad_id": 31772, "name": "FENGYUN 1C DEB", "group": "fengyun-1c-debris", "lat": -70.16710511555674, "lon": -69.75360469587288, "alt_km": 959.4861586524685, "timestamp": "2025-12-14T11:29:50.344424+00:00", "meta": {"OBJECT_NAME": "FENGYUN 1C DEB", "OBJECT_ID": "1999-025CFX", "EPOCH": "2025-12-11T05:35:48.586272", "MEAN_MOTION": 14.11688843, "ECCENTRICITY": 0.01364755, "INCLINATION": 98.4728, "RA_OF_ASC_NODE": 262.7683, "ARG_OF_PERICENTER": 117.9811, "MEAN_ANOMALY": 243.525, "EPHEMERIS_TYPE": 0, "CLASSIFICATION_TYPE": "U", "NORAD_CAT_ID": 31772, "ELEMENT_SET_NO": 999, "REV_AT_EPOCH": 70862, "BSTAR": 0.0014944149, "MEAN_MOTION_DOT": 2.93e-05, "MEAN_MOTION_DDOT": 0}, "tle": {"line1": "1 31772U 99025CFX 25345.23320123  .00002930  00000+0  14944-2 0  9997", "line2": "2 31772  98.4728 262.7683 0136475 117.9811 243.5250 14.11688843708626"}}, "geometry": {"type": "Point", "coordinates": [-69.75360469587288, -70.16710511555674]}}, {"type": "Feature", "properties": {"norad_id": 31773, "name": "FENGYUN 1C DEB", "group": "fengyun-1c-debris", "lat": 25.14575384611245, "lon": -24.667213710019308, "alt_km": 674.248620762618, "timestamp": "2025-12-14T11:29:50.344434+00:00", "meta": {"OBJECT_NAME": "FENGYUN 1C DEB", "OBJECT_ID": "1999-025CFY", "EPOCH": "2025-12-12T16:59:23.817984", "MEAN_MOTION": 14.7284171, "ECCENTRICITY": 0.00391919, "INCLINATION": 98.9501, "RA_OF_ASC_NODE": 337.6253, "ARG_OF_PERICENTER": 178.6519, "MEAN_ANOMALY": 181.4798, "EPHEMERIS_TYPE": 0, "CLASSIFICATION_TYPE": "U", "NORAD_CAT_ID": 31773, "ELEMENT_SET_NO": 999, "REV_AT_EPOCH": 65174, "BSTAR": 0.0029205925, "MEAN_MOTION_DOT": 0.00018906, "MEAN_MOTION_DDOT": 0}, "tle": {"line1": "1 31773U 99025CFY 25346.70791456  .00018906  00000+0  29206-2 0  9999", "line2": "2 31773  98.9501 337.6253 0039191 178.6519 181.4798 14.72841710651740"}}, "geometry": {"type": "Point", "coordinates": [-24.667213710019308, 25.14575384611245]}}, {"type": "Feature", "properties": {"norad_id": 31776, "name": "FENGYUN 1C DEB", "group": "fengyun-1c-debris", "lat": 57.40383582528455, "lon": -117.26231184705065, "alt_km": 859.2523943595897, "timestamp": "2025-12-14T11:29:50.344444+00:00", "meta": {"OBJECT_NAME": "FENGYUN 1C DEB", "OBJECT_ID": "1999-025CGB", "EPOCH": "2025-12-10T10:30:15.554592", "MEAN_MOTION": 14.18530208, "ECCENTRICITY": 0.00545226, "INCLINATION": 99.0756, "RA_OF_ASC_NODE": 44.129, "ARG_OF_PERICENTER": 341.0208, "MEAN_ANOMALY": 33.1923, "EPHEMERIS_TYPE": 0, "CLASSIFICATION_TYPE": "U", "NORAD_CAT_ID": 31776, "ELEMENT_SET_NO": 999, "REV_AT_EPOCH": 94848, "BSTAR": 0.0019236943, "MEAN_MOTION_DOT": 3.993e-05, "MEAN_MOTION_DDOT": 0}, "tle": {"line1": "1 31776U 99025CGB 25344.43768003  .00003993  00000+0  19237-2 0  9995", "line2": "2 31776  99.0756  44.1290 0054522 341.0208  33.1923 14.18530208948484"}}, "geometry": {"type": "Point", "coordinates": [-117.26231184705065, 57.40383582528455]}}, {"type": "Feature", "properties": {"norad_id": 31779, "name": "FENGYUN 1C DEB", "group": "fengyun-1c-debris", "lat": -27.976692292026744, "lon": 83.60910766115938, "alt_km": 627.0636703796517, "timestamp": "2025-12-14T11:29:50.344454+00:00", "meta": {"OBJECT_NAME": "FENGYUN 1C DEB", "OBJECT_ID": "1999-025CGE", "EPOCH": "2025-12-11T12:34:35.760000", "MEAN_MOTION": 14.41592945, "ECCENTRICITY": 0.02132207, "INCLINATION": 99.2981, "RA_OF_ASC_NODE": 265.3848, "ARG_OF_PERICENTER": 186.4741, "MEAN_ANOMALY": 173.3682, "EPHEMERIS_TYPE": 0, "CLASSIFICATION_TYPE": "U", "NORAD_CAT_ID": 31779, "ELEMENT_SET_NO": 999, "REV_AT_EPOCH": 96992, "BSTAR": 0.00040723381, "MEAN_MOTION_DOT": 1.677e-05, "MEAN_MOTION_DDOT": 0}, "tle": {"line1": "1 31779U 99025CGE 25345.52402500  .00001677  00000+0  40723-3 0  9998", "line2": "2 31779  99.2981 265.3848 0213220 186.4741 173.3682 14.41592945969923"}}, "geometry": {"type": "Point", "coordinates": [83.60910766115938, -27.976692292026744]}}, {"type": "Feature", "properties": {"norad_id": 31780, "name": "FENGYUN 1C DEB", "group": "fengyun-1c-debris", "lat": -18.84406736775004, "lon": 144.5481117318163, "alt_km": 624.4948700734049, "timestamp": "2025-12-14T11:29:50.344464+00:00", "meta": {"OBJECT_NAME": "FENGYUN 1C DEB", "OBJECT_ID": "1999-025CGF", "EPOCH": "2025-12-12T08:55:33.332448", "MEAN_MOTION": 14.69538673, "ECCENTRICITY": 0.01508182, "INCLINATION": 99.2857, "RA_OF_ASC_NODE": 138.9527, "ARG_OF_PERICENTER": 54.3457, "MEAN_ANOMALY": 307.1681, "EPHEMERIS_TYPE": 0, "CLASSIFICATION_TYPE": "U", "NORAD_CAT_ID": 31780, "ELEMENT_SET_NO": 999, "REV_AT_EPOCH": 98492, "BSTAR": 0.00046418273, "MEAN_MOTION_DOT": 3.21e-05, "MEAN_MOTION_DDOT": 0}, "tle": {"line1": "1 31780U 99025CGF 25346.37191357  .00003210  00000+0  46418-3 0  9991", "line2": "2 31780  99.2857 138.9527 0150818  54.3457 307.1681 14.69538673984927"}}, "geometry": {"type": "Point", "coordinates": [144.5481117318163, -18.84406736775004]}}, {"type": "Feature", "properties": {"norad_id": 31781, "name": "FENGYUN 1C DEB", "group": "fengyun-1c-debris", "lat": 62.07339125311186, "lon": -2.1066221186139074, "alt_km": 973.0013964816553, "timestamp": "2025-12-14T11:29:50.344474+00:00", "meta": {"OBJECT_NAME": "FENGYUN 1C DEB", "OBJECT_ID": "1999-025CGG", "EPOCH": "2025-12-09T06:52:06.193920", "MEAN_MOTION": 14.12885604, "ECCENTRICITY": 0.0203697, "INCLINATION": 99.4979, "RA_OF_ASC_NODE": 153.9738, "ARG_OF_PERICENTER": 283.3787, "MEAN_ANOMALY": 74.4748, "EPHEMERIS_TYPE": 0, "CLASSIFICATION_TYPE": "U", "NORAD_CAT_ID": 31781, "ELEMENT_SET_NO": 999, "REV_AT_EPOCH": 68299, "BSTAR": 0.004746, "MEAN_MOTION_DOT": 0.0001072, "MEAN_MOTION_DDOT": 0}, "tle": {"line1": "1 31781U 99025CGG 25343.28618280  .00010720  00000+0  47460-2 0  9999", "line2": "2 31781  99.4979 153.9738 0203697 283.3787  74.4748 14.12885604682997"}}, "geometry": {"type": "Point", "coordinates": [-2.1066221186139074, 62.07339125311186]}}, {"type": "Feature", "properties": {"norad_id": 31782, "name": "FENGYUN 1C DEB", "group": "fengyun-1c-debris", "lat": 3.8714222230613307, "lon": 149.11754361632893, "alt_km": 717.754898046649, "timestamp": "2025-12-14T11:29:50.344486+00:00", "meta": {"OBJECT_NAME": "FENGYUN 1C DEB", "OBJECT_ID": "1999-025CGH", "EPOCH": "2025-12-12T05:08:34.345824", "MEAN_MOTION": 14.36232417, "ECCENTRICITY": 0.00795156, "INCLINATION": 98.9039, "RA_OF_ASC_NODE": 147.386, "ARG_OF_PERICENTER": 358.569, "MEAN_ANOMALY": 182.0654, "EPHEMERIS_TYPE": 0, "CLASSIFICATION_TYPE": "U", "NORAD_CAT_ID": 31782, "ELEMENT_SET_NO": 999, "REV_AT_EPOCH": 96683, "BSTAR": 0.00055247789, "MEAN_MOTION_DOT": 1.624e-05, "MEAN_MOTION_DDOT": 0}, "tle": {"line1": "1 31782U 99025CGH 25346.21428641  .00001624  00000+0  55248-3 0  9993", "line2": "2 31782  98.9039 147.3860 0079515 358.5690 182.0654 14.36232417966834"}}, "geometry": {"type": "Point", "coordinates": [149.11754361632893, 3.8714222230613307]}}, {"type": "Feature", "properties": {"norad_id": 31783, "name": "FENGYUN 1C DEB", "group": "fengyun-1c-debris", "lat": 81.16604764090458, "lon": -105.97156364510946, "alt_km": 803.9048619959558, "timestamp": "2025-12-14T11:29:50.344496+00:00", "meta": {"OBJECT_NAME": "FENGYUN 1C DEB", "OBJECT_ID": "1999-025CGJ", "EPOCH": "2025-12-12T23:24:59.164992", "MEAN_MOTION": 14.08828598, "ECCENTRICITY": 0.01043112, "INCLINATION": 98.6046, "RA_OF_ASC_NODE": 355.6233, "ARG_OF_PERICENTER": 49.3124, "MEAN_ANOMALY": 341.2861, "EPHEMERIS_TYPE": 0, "CLASSIFICATION_TYPE": "U", "NORAD_CAT_ID": 31783, "ELEMENT_SET_NO": 999, "REV_AT_EPOCH": 89224, "BSTAR": 0.00080731218, "MEAN_MOTION_DOT": 1.424e-05, "MEAN_MOTION_DDOT": 0}, "tle": {"line1": "1 31783U 99025CGJ 25346.97568478  .00001424  00000+0  80731-3 0  9993", "line2": "2 31783  98.6046 355.6233 0104311  49.3124 341.2861 14.08828598892240"}}, "geometry": {"type": "Point", "coordinates": [-105.97156364510946, 81.16604764090458]}}]}